start=new Date('2022-05-10T00:00:00.000Z').valueOf();
sats=[{"INCLINATION":"53.0537","ECCENTRICITY":"0.00017910","SEMIMAJOR_AXIS":"6925.347","PERIAPSIS":"545.971","BSTAR":"0.00009710900000","MEAN_MOTION_DDOT":"0.0000000000000","APOAPSIS":"548.452","NORAD_CAT_ID":"45214","REV_AT_EPOCH":"12413","FILE":"3438010","EPHEMERIS_TYPE":"0","TIME_SYSTEM":"UTC","MEAN_ANOMALY":"306.7767","CENTER_NAME":"EARTH","RA_OF_ASC_NODE":"190.5425","TLE_LINE1":"1 45214U 20012AN  22129.89578013  .00001165  00000-0  97109-4 0  9991","TLE_LINE2":"2 45214  53.0537 190.5425 0001791  53.3387 306.7767 15.06400647124134","SITE":"AFETR","OBJECT_NAME":"STARLINK-1233","LAUNCH_DATE":"2020-02-17","REF_FRAME":"TEME","OBJECT_ID":"2020-012AN","COUNTRY_CODE":"US","EPOCH":"2022-05-09T21:29:55.403232","ARG_OF_PERICENTER":"53.3387","MEAN_MOTION":"15.06400647","ELEMENT_SET_NO":"999","OBJECT_TYPE":"PAYLOAD","DECAY_DATE":null,"GP_ID":"203139742","MEAN_ELEMENT_THEORY":"SGP4","CLASSIFICATION_TYPE":"U","PERIOD":"95.592","RCS_SIZE":"LARGE","MEAN_MOTION_DOT":"0.00001165"},{"EPHEMERIS_TYPE":"0","TIME_SYSTEM":"UTC","MEAN_ANOMALY":"309.2745","CENTER_NAME":"EARTH","RA_OF_ASC_NODE":"190.5523","TLE_LINE1":"1 45215U 20012AP  22129.89210108  .00001663  00000-0  13049-3 0  9993","APOAPSIS":"548.451","NORAD_CAT_ID":"45215","REV_AT_EPOCH":"12407","FILE":"3438010","SEMIMAJOR_AXIS":"6925.349","PERIAPSIS":"545.977","BSTAR":"0.00013049000000","MEAN_MOTION_DDOT":"0.0000000000000","INCLINATION":"53.0547","ECCENTRICITY":"0.00017860","GP_ID":"203140479","MEAN_ELEMENT_THEORY":"SGP4","CLASSIFICATION_TYPE":"U","PERIOD":"95.592","RCS_SIZE":"LARGE","MEAN_MOTION_DOT":"0.00001663","MEAN_MOTION":"15.06399838","ARG_OF_PERICENTER":"50.8403","ELEMENT_SET_NO":"999","DECAY_DATE":null,"OBJECT_TYPE":"PAYLOAD","OBJECT_ID":"2020-012AP","COUNTRY_CODE":"US","EPOCH":"2022-05-09T21:24:37.533312","TLE_LINE2":"2 45215  53.0547 190.5523 0001786  50.8403 309.2745 15.06399838124076","OBJECT_NAME":"STARLINK-1245","SITE":"AFETR","LAUNCH_DATE":"2020-02-17","REF_FRAME":"TEME"},{"EPOCH":"2022-05-09T20:47:28.269024","COUNTRY_CODE":"US","OBJECT_ID":"2020-012AR","TLE_LINE2":"2 45217  53.0548 190.6755 0001657  55.2397 304.8748 15.06397320124130","REF_FRAME":"TEME","OBJECT_NAME":"STARLINK-1271","SITE":"AFETR","LAUNCH_DATE":"2020-02-17","PERIOD":"95.592","RCS_SIZE":"LARGE","MEAN_MOTION_DOT":"-0.00000367","GP_ID":"203139241","CLASSIFICATION_TYPE":"U","MEAN_ELEMENT_THEORY":"SGP4","OBJECT_TYPE":"PAYLOAD","DECAY_DATE":null,"ELEMENT_SET_NO":"999","ARG_OF_PERICENTER":"55.2397","MEAN_MOTION":"15.06397320","MEAN_MOTION_DDOT":"0.0000000000000","SEMIMAJOR_AXIS":"6925.357","PERIAPSIS":"546.074","BSTAR":"-0.00000571640000","ECCENTRICITY":"0.00016570","INCLINATION":"53.0548","RA_OF_ASC_NODE":"190.6755","TLE_LINE1":"1 45217U 20012AR  22129.86629941 -.00000367  00000-0 -57164-5 0  9991","TIME_SYSTEM":"UTC","EPHEMERIS_TYPE":"0","CENTER_NAME":"EARTH","MEAN_ANOMALY":"304.8748","FILE":"3438010","NORAD_CAT_ID":"45217","APOAPSIS":"548.369","REV_AT_EPOCH":"12413"},{"TLE_LINE2":"2 45219  53.0535 171.8720 0001849  54.3043 305.8118 15.06406403124384","SITE":"AFETR","LAUNCH_DATE":"2020-02-17","OBJECT_NAME":"STARLINK-1187","REF_FRAME":"TEME","COUNTRY_CODE":"US","EPOCH":"2022-05-09T14:22:39.227232","OBJECT_ID":"2020-012AT","OBJECT_TYPE":"PAYLOAD","DECAY_DATE":null,"ARG_OF_PERICENTER":"54.3043","MEAN_MOTION":"15.06406403","ELEMENT_SET_NO":"999","PERIOD":"95.592","RCS_SIZE":"LARGE","MEAN_MOTION_DOT":"0.00004727","GP_ID":"203139488","MEAN_ELEMENT_THEORY":"SGP4","CLASSIFICATION_TYPE":"U","ECCENTRICITY":"0.00018490","INCLINATION":"53.0535","MEAN_MOTION_DDOT":"0.0000000000000","PERIAPSIS":"545.913","SEMIMAJOR_AXIS":"6925.329","BSTAR":"0.00033596000000","FILE":"3438010","APOAPSIS":"548.474","NORAD_CAT_ID":"45219","REV_AT_EPOCH":"12438","RA_OF_ASC_NODE":"171.8720","TLE_LINE1":"1 45219U 20012AT  22129.59906513  .00004727  00000-0  33596-3 0  9999","EPHEMERIS_TYPE":"0","TIME_SYSTEM":"UTC","MEAN_ANOMALY":"305.8118","CENTER_NAME":"EARTH"},{"MEAN_ANOMALY":"306.7652","CENTER_NAME":"EARTH","EPHEMERIS_TYPE":"0","TIME_SYSTEM":"UTC","TLE_LINE1":"1 45221U 20012AV  22129.80179200  .00000779  00000-0  71174-4 0  9999","RA_OF_ASC_NODE":"170.9716","REV_AT_EPOCH":"12346","NORAD_CAT_ID":"45221","APOAPSIS":"548.357","FILE":"3437625","BSTAR":"0.00007117400000","SEMIMAJOR_AXIS":"6925.356","PERIAPSIS":"546.085","MEAN_MOTION_DDOT":"0.0000000000000","INCLINATION":"53.0546","ECCENTRICITY":"0.00016400","MEAN_ELEMENT_THEORY":"SGP4","CLASSIFICATION_TYPE":"U","GP_ID":"203111812","RCS_SIZE":"LARGE","MEAN_MOTION_DOT":"0.00000779","PERIOD":"95.592","MEAN_MOTION":"15.06397621","ARG_OF_PERICENTER":"53.3488","ELEMENT_SET_NO":"999","OBJECT_TYPE":"PAYLOAD","DECAY_DATE":null,"OBJECT_ID":"2020-012AV","COUNTRY_CODE":"US","EPOCH":"2022-05-09T19:14:34.828800","SITE":"AFETR","LAUNCH_DATE":"2020-02-17","OBJECT_NAME":"STARLINK-1189","REF_FRAME":"TEME","TLE_LINE2":"2 45221  53.0546 170.9716 0001640  53.3488 306.7652 15.06397621123467"},{"EPOCH":"2022-05-09T19:25:11.739360","COUNTRY_CODE":"US","OBJECT_ID":"2020-012AW","TLE_LINE2":"2 45222  53.0530 170.9213 0001826  42.5980 317.5150 15.06409102124402","REF_FRAME":"TEME","SITE":"AFETR","LAUNCH_DATE":"2020-02-17","OBJECT_NAME":"STARLINK-1191","PERIOD":"95.592","RCS_SIZE":"LARGE","MEAN_MOTION_DOT":"0.00001518","GP_ID":"203139980","CLASSIFICATION_TYPE":"U","MEAN_ELEMENT_THEORY":"SGP4","DECAY_DATE":null,"OBJECT_TYPE":"PAYLOAD","ELEMENT_SET_NO":"999","MEAN_MOTION":"15.06409102","ARG_OF_PERICENTER":"42.5980","MEAN_MOTION_DDOT":"0.0000000000000","SEMIMAJOR_AXIS":"6925.321","PERIAPSIS":"545.921","BSTAR":"0.00012077000000","ECCENTRICITY":"0.00018260","INCLINATION":"53.0530","RA_OF_ASC_NODE":"170.9213","TLE_LINE1":"1 45222U 20012AW  22129.80916365  .00001518  00000-0  12077-3 0  9999","TIME_SYSTEM":"UTC","EPHEMERIS_TYPE":"0","CENTER_NAME":"EARTH","MEAN_ANOMALY":"317.5150","FILE":"3438010","NORAD_CAT_ID":"45222","APOAPSIS":"548.450","REV_AT_EPOCH":"12440"},{"TLE_LINE1":"1 45223U 20012AX  22129.83127295  .00001113  00000-0  93609-4 0  9991","RA_OF_ASC_NODE":"170.8412","CENTER_NAME":"EARTH","MEAN_ANOMALY":"315.2152","TIME_SYSTEM":"UTC","EPHEMERIS_TYPE":"0","FILE":"3438010","REV_AT_EPOCH":"12441","NORAD_CAT_ID":"45223","APOAPSIS":"548.689","MEAN_MOTION_DDOT":"0.0000000000000","BSTAR":"0.00009360900000","SEMIMAJOR_AXIS":"6925.331","PERIAPSIS":"545.703","ECCENTRICITY":"0.00021560","INCLINATION":"53.0548","RCS_SIZE":"LARGE","MEAN_MOTION_DOT":"0.00001113","PERIOD":"95.592","CLASSIFICATION_TYPE":"U","MEAN_ELEMENT_THEORY":"SGP4","GP_ID":"203138742","DECAY_DATE":null,"OBJECT_TYPE":"PAYLOAD","ELEMENT_SET_NO":"999","ARG_OF_PERICENTER":"44.9011","MEAN_MOTION":"15.06405603","EPOCH":"2022-05-09T19:57:01.982880","COUNTRY_CODE":"US","OBJECT_ID":"2020-012AX","REF_FRAME":"TEME","LAUNCH_DATE":"2020-02-17","SITE":"AFETR","OBJECT_NAME":"STARLINK-1212","TLE_LINE2":"2 45223  53.0548 170.8412 0002156  44.9011 315.2152 15.06405603124410"},{"COUNTRY_CODE":"US","EPOCH":"2022-05-09T21:33:34.818624","OBJECT_ID":"2020-012AY","SITE":"AFETR","LAUNCH_DATE":"2020-02-17","OBJECT_NAME":"STARLINK-1214","REF_FRAME":"TEME","TLE_LINE2":"2 45224  53.0434   8.7534 0003757 116.2792 243.8617 15.85806148126562","MEAN_MOTION_DOT":"0.00118167","RCS_SIZE":"LARGE","PERIOD":"90.806","MEAN_ELEMENT_THEORY":"SGP4","CLASSIFICATION_TYPE":"U","GP_ID":"203138989","DECAY_DATE":null,"OBJECT_TYPE":"PAYLOAD","ARG_OF_PERICENTER":"116.2792","MEAN_MOTION":"15.85806148","ELEMENT_SET_NO":"999","MEAN_MOTION_DDOT":"0.0000000000000","BSTAR":"0.00047055000000","SEMIMAJOR_AXIS":"6692.193","PERIAPSIS":"311.544","ECCENTRICITY":"0.00037570","INCLINATION":"53.0434","TLE_LINE1":"1 45224U 20012AY  22129.89831966  .00118167  00000-0  47055-3 0  9996","RA_OF_ASC_NODE":"8.7534","MEAN_ANOMALY":"243.8617","CENTER_NAME":"EARTH","EPHEMERIS_TYPE":"0","TIME_SYSTEM":"UTC","FILE":"3438010","REV_AT_EPOCH":"12656","APOAPSIS":"316.572","NORAD_CAT_ID":"45224"},{"RCS_SIZE":"LARGE","MEAN_MOTION_DOT":"0.00000306","PERIOD":"95.593","CLASSIFICATION_TYPE":"U","MEAN_ELEMENT_THEORY":"SGP4","GP_ID":"203139743","OBJECT_TYPE":"PAYLOAD","DECAY_DATE":null,"ELEMENT_SET_NO":"999","MEAN_MOTION":"15.06393465","ARG_OF_PERICENTER":"39.9644","EPOCH":"2022-05-09T20:23:35.293920","COUNTRY_CODE":"US","OBJECT_ID":"2020-012AZ","REF_FRAME":"TEME","LAUNCH_DATE":"2020-02-17","SITE":"AFETR","OBJECT_NAME":"STARLINK-1215","TLE_LINE2":"2 45225  53.0537 170.7333 0002045  39.9644 320.1495 15.06393465124365","TLE_LINE1":"1 45225U 20012AZ  22129.84971405  .00000306  00000-0  39462-4 0  9994","RA_OF_ASC_NODE":"170.7333","CENTER_NAME":"EARTH","MEAN_ANOMALY":"320.1495","TIME_SYSTEM":"UTC","EPHEMERIS_TYPE":"0","FILE":"3438010","REV_AT_EPOCH":"12436","APOAPSIS":"548.650","NORAD_CAT_ID":"45225","MEAN_MOTION_DDOT":"0.0000000000000","BSTAR":"0.00003946200000","SEMIMAJOR_AXIS":"6925.369","PERIAPSIS":"545.817","ECCENTRICITY":"0.00020450","INCLINATION":"53.0537"},{"PERIOD":"95.593","RCS_SIZE":"LARGE","MEAN_MOTION_DOT":"0.00000173","GP_ID":"203100184","CLASSIFICATION_TYPE":"U","MEAN_ELEMENT_THEORY":"SGP4","OBJECT_TYPE":"PAYLOAD","DECAY_DATE":null,"ELEMENT_SET_NO":"999","ARG_OF_PERICENTER":"54.6000","MEAN_MOTION":"15.06392798","EPOCH":"2022-05-09T09:25:25.582080","COUNTRY_CODE":"US","OBJECT_ID":"2020-012BA","TLE_LINE2":"2 45226  53.0542 172.7938 0001937  54.6000 305.5170 15.06392798124257","REF_FRAME":"TEME","LAUNCH_DATE":"2020-02-17","SITE":"AFETR","OBJECT_NAME":"STARLINK-1217","RA_OF_ASC_NODE":"172.7938","TLE_LINE1":"1 45226U 20012BA  22129.39265720  .00000173  00000-0  30499-4 0  9994","TIME_SYSTEM":"UTC","EPHEMERIS_TYPE":"0","CENTER_NAME":"EARTH","MEAN_ANOMALY":"305.5170","FILE":"3437431","NORAD_CAT_ID":"45226","APOAPSIS":"548.577","REV_AT_EPOCH":"12425","MEAN_MOTION_DDOT":"0.0000000000000","PERIAPSIS":"545.894","SEMIMAJOR_AXIS":"6925.371","BSTAR":"0.00003049900000","ECCENTRICITY":"0.00019370","INCLINATION":"53.0542"}];
